1 47514U 21006DE  21098.86006972  .00002392  00000-0  14293-3 0  9996
2 47514  97.4931 161.1802 0008389   1.8792 358.2468 15.12018705 12481
1 47514U 21006DE  21099.12478399  .00002458  00000-0  14676-3 0  9990
2 47514  97.4931 161.4399 0008362   0.8183 359.3059 15.12020023 12528
1 47514U 21006DE  21099.91892568  .00002469  00000-0  14740-3 0  9999
2 47514  97.4929 162.2190 0008267 358.0681   2.0516 15.12023443 12640
1 47514U 21006DE  21100.11746071  .00002469  00000-0  14739-3 0  9999
2 47514  97.4928 162.4138 0008250 357.3606   2.7579 15.12024458 12670
1 47514U 21006DE  21100.44835243  .00002280  00000-0  13635-3 0  9990
2 47514  97.4928 162.7384 0008210 356.1990   3.9177 15.12025331 12729
1 47514U 21006DE  21101.44102497  .00002377  00000-0  14200-3 0  9995
2 47514  97.4926 163.7123 0008118 352.7365   7.3747 15.12030526 12873
1 47514U 21006DE  21101.90427112  .00002030  00000-0  12181-3 0  9992
2 47514  97.4924 164.1668 0008072 351.1076   9.0010 15.12031727 12945
1 47514U 21006DE  21102.10280500  .00001996  00000-0  11983-3 0  9992
2 47514  97.4924 164.3616 0008052 350.3768   9.7307 15.12032608 12975
1 47514U 21006DE  21103.42636183  .00001843  00000-0  11093-3 0  9993
2 47514  97.4922 165.6600 0007981 345.2122  14.8874 15.12036888 13170
1 47514U 21006DE  21104.15431478  .00001825  00000-0  10984-3 0  9992
2 47514  97.4917 166.3743 0007861 342.8677  17.2287 15.12041529 13280
1 47514U 21006DE  21104.61755755  .00001813  00000-0  10918-3 0  9994
2 47514  97.4916 166.8287 0007818 341.1407  18.9533 15.12043396 13356
1 47514U 21006DE  21105.47786380  .00002206  00000-0  13202-3 0  9993
2 47514  97.4914 167.6728 0007742 337.8637  22.2258 15.12048086 13483
1 47514U 21006DE  21105.67639571  .00002201  00000-0  13170-3 0  9993
2 47514  97.4914 167.8676 0007726 337.0426  23.0458 15.12048923 13512
1 47514U 21006DE  21105.94110542  .00001677  00000-0  10122-3 0  9995
2 47514  97.4913 168.1273 0007701 335.9900  24.0970 15.12047976 13556
1 47514U 21006DE  21106.47052327  .00001910  00000-0  11477-3 0  9994
2 47514  97.4912 168.6467 0007656 333.9708  26.1137 15.12050729 13635
1 47514U 21006DE  21106.80140910  .00001955  00000-0  11742-3 0  9991
2 47514  97.4911 168.9713 0007637 332.6775  27.4053 15.12052117 13689
1 47514U 21006DE  21106.93376322  .00001992  00000-0  11956-3 0  9991
2 47514  97.4911 169.1012 0007620 332.1262  27.9559 15.12052756 13700
1 47514U 21006DE  21107.46317826  .00002729  00000-0  16234-3 0  9997
2 47514  97.4911 169.6206 0007578 330.0167  30.0628 15.12057862 13786
1 47514U 21006DE  21107.86023850  .00003123  00000-0  18527-3 0  9998
2 47514  97.4910 170.0101 0007554 328.4045  31.6731 15.12061522 13842
1 47514U 21006DE  21108.12494518  .00003144  00000-0  18647-3 0  9997
2 47514  97.4910 170.2698 0007534 327.2977  32.7786 15.12063204 13889
1 47514U 21006DE  21108.45582795  .00004134  00000-0  24393-3 0  9993
2 47514  97.4908 170.5944 0007521 325.7162  34.3582 15.12067591 13939
1 47514U 21006DE  21108.85288613  .00004192  00000-0  24728-3 0  9995
2 47514  97.4907 170.9840 0007490 324.2355  35.8373 15.12071155 13991
1 47514U 21006DE  21109.44847151  .00003980  00000-0  23496-3 0  9994
2 47514  97.4909 171.5683 0007435 321.9187  38.1517 15.12076229 14085
1 47514U 21006DE  21109.91170280  .00004075  00000-0  24043-3 0  9993
2 47514  97.4909 172.0227 0007394 320.1261  39.9425 15.12081012 14154
1 47514U 21006DE  21110.50728424  .00003928  00000-0  23185-3 0  9991
2 47514  97.4910 172.6070 0007340 317.8992  42.1674 15.12086343 14247
1 47514U 21006DE  21110.83816220  .00003539  00000-0  20924-3 0  9995
2 47514  97.4911 172.9317 0007303 316.6072  43.4583 15.12088230 14295
1 47514U 21006DE  21110.90433769  .00003515  00000-0  20786-3 0  9996
2 47514  97.4911 172.9966 0007298 316.3593  43.7059 15.12088725 14305
1 47514U 21006DE  21111.43374086  .00003278  00000-0  19410-3 0  9999
2 47514  97.4912 173.5160 0007252 314.2203  45.8431 15.12092703 14380
1 47514U 21006DE  21111.76461731  .00003035  00000-0  17997-3 0  9998
2 47514  97.4911 173.8406 0007224 312.9169  47.1454 15.12094726 14433
1 47514U 21006DE  21112.16166851  .00002828  00000-0  16793-3 0  9990
2 47514  97.4911 174.2301 0007196 311.3380  48.7231 15.12097124 14499
1 47514U 21006DE  21112.42636906  .00002537  00000-0  15106-3 0  9996
2 47514  97.4911 174.4898 0007165 310.3510  49.7094 15.12098151 14536
1 47514U 21006DE  21112.88959453  .00002515  00000-0  14979-3 0  9994
2 47514  97.4909 174.9442 0007187 308.2550  51.8033 15.12100139 14602
1 47514U 21006DE  21113.15429468  .00002117  00000-0  12663-3 0  9999
2 47514  97.4909 175.2038 0007175 307.1299  52.9276 15.12100491 14648
1 47514U 21006DE  21113.48516927  .00002179  00000-0  13025-3 0  9993
2 47514  97.4908 175.5284 0007156 305.7444  54.3121 15.12102568 14695
1 47514U 21006DE  21114.47779125  .00002308  00000-0  13770-3 0  9995
2 47514  97.4907 176.5023 0007115 301.5977  58.4558 15.12108098 14846
1 47514U 21006DE  21114.80866447  .00002580  00000-0  15348-3 0  9991
2 47514  97.4906 176.8268 0007104 300.1903  59.8624 15.12110568 14890
1 47514U 21006DE  21114.87483912  .00002583  00000-0  15366-3 0  9993
2 47514  97.4905 176.8918 0007102 299.9124  60.1401 15.12110855 14908
1 47514U 21006DE  21115.47040974  .00003022  00000-0  17911-3 0  9994
2 47514  97.4904 177.4760 0007079 297.3795  62.6714 15.12115236 14999
1 47514U 21006DE  21115.93363025  .00003415  00000-0  20191-3 0  9990
2 47514  97.4903 177.9304 0007065 295.3674  64.6824 15.12118916 15067
1 47514U 21006DE  21116.13215297  .00003477  00000-0  20551-3 0  9998
2 47514  97.4902 178.1251 0007065 294.5359  65.5135 15.12120335 15097
1 47514U 21006DE  21116.59537208  .00004111  00000-0  24225-3 0  9995
2 47514  97.4900 178.5795 0007078 292.3399  67.7081 15.12124101 15163
1 47514U 21006DE  21116.86006814  .00004039  00000-0  23803-3 0  9999
2 47514  97.4899 178.8392 0007073 291.2022  68.8452 15.12125748 15209
1 47514U 21006DE  21117.38945914  .00003889  00000-0  22932-3 0  9994
2 47514  97.4898 179.3585 0007065 288.9247  71.1218 15.12129431 15289
1 47514U 21006DE  21117.45563286  .00003954  00000-0  23308-3 0  9991
2 47514  97.4898 179.4234 0007065 288.6558  71.3905 15.12130143 15291
1 47514U 21006DE  21118.11736921  .00003773  00000-0  22256-3 0  9993
2 47514  97.4896 180.0726 0007053 285.8434  74.2019 15.12135181 15398
1 47514U 21006DE  21118.44823673  .00003437  00000-0  20309-3 0  9994
2 47514  97.4895 180.3972 0007032 284.4341  75.6109 15.12136956 15444
1 47514U 21006DE  21118.84527697  .00003297  00000-0  19493-3 0  9991
2 47514  97.4894 180.7867 0007015 282.7397  77.3049 15.12139713 15506
1 47514U 21006DE  21119.44083660  .00003003  00000-0  17789-3 0  9996
2 47514  97.4895 181.3710 0007002 280.1902  79.8539 15.12142517 15597
1 47514U 21006DE  21119.83787552  .00002816  00000-0  16704-3 0  9997
2 47514  97.4894 181.7605 0006993 278.4920  81.5518 15.12144643 15657
1 47514U 21006DE  21120.43343308  .00002414  00000-0  14374-3 0  9997
2 47514  97.4893 182.3447 0006980 275.9072  84.1363 15.12147096 15745
1 47514U 21006DE  21120.83047081  .00002281  00000-0  13602-3 0  9995
2 47514  97.4892 182.7342 0006977 274.2520  85.7913 15.12148937 15808
1 47514U 21006DE  21121.49219948  .00002120  00000-0  12666-3 0  9992
2 47514  97.4891 183.3834 0006972 271.4424  88.6008 15.12151849 15901
1 47514U 21006DE  21121.82306336  .00002174  00000-0  12980-3 0  9995
2 47514  97.4891 183.7079 0006971 270.0567  89.9865 15.12153566 15956
1 47514U 21006DE  21122.48479040  .00002042  00000-0  12211-3 0  9992
2 47514  97.4890 184.3571 0006979 267.2144  92.8288 15.12156073 16056
1 47514U 21006DE  21122.61713568  .00002040  00000-0  12201-3 0  9990
2 47514  97.4890 184.4870 0006982 266.6482  93.3950 15.12156666 16073
1 47514U 21006DE  21122.88182599  .00002043  00000-0  12214-3 0  9990
2 47514  97.4889 184.7466 0006985 265.5523  94.4910 15.12157761 16112
1 47514U 21006DE  21123.47737889  .00001928  00000-0  11551-3 0  9998
2 47514  97.4889 185.3309 0007002 262.9846  97.0588 15.12159794 16203
1 47514U 21006DE  21123.60972386  .00001940  00000-0  11618-3 0  9994
2 47514  97.4889 185.4607 0007007 262.4126  97.6309 15.12160383 16221
1 47514U 21006DE  21124.13910322  .00002067  00000-0  12355-3 0  9995
2 47514  97.4889 185.9800 0007034 260.1995  99.8441 15.12162791 16305
1 47514U 21006DE  21124.46996526  .00001864  00000-0  11176-3 0  9995
2 47514  97.4889 186.3045 0007044 258.7622 101.2817 15.12163273 16358
1 47514U 21006DE  21124.86699911  .00001962  00000-0  11742-3 0  9995
2 47514  97.4889 186.6940 0007063 257.1052 102.9390 15.12165013 16411
1 47514U 21006DE  21125.39637715  .00001975  00000-0  11821-3 0  9990
2 47514  97.4889 187.2132 0007089 254.7981 105.2466 15.12166909 16496
1 47514U 21006DE  21126.45513115  .00001945  00000-0  11647-3 0  9998
2 47514  97.4889 188.2517 0007137 250.2872 109.7589 15.12170592 16654
1 47514U 21006DE  21126.91833460  .00001844  00000-0  11061-3 0  9995
2 47514  97.4890 188.7059 0007131 248.6425 111.4045 15.12172528 16727
1 47514U 21006DE  21127.44770954  .00001895  00000-0  11351-3 0  9990
2 47514  97.4889 189.2252 0007157 246.4289 113.6190 15.12174894 16800
1 47514U 21006DE  21127.84474041  .00001819  00000-0  10911-3 0  9999
2 47514  97.4888 189.6146 0007182 244.7946 115.2540 15.12176025 16865
1 47514U 21006DE  21127.91091219  .00001813  00000-0  10876-3 0  9993
2 47514  97.4888 189.6795 0007189 244.4990 115.5498 15.12176244 16877
1 47514U 21006DE  21128.90348757  .00001698  00000-0  10210-3 0  9998
2 47514  97.4887 190.6531 0007260 240.4181 119.6326 15.12179440 17028
1 47514U 21006DE  21129.10200230  .00001711  00000-0  10288-3 0  9995
2 47514  97.4886 190.8478 0007278 239.6620 120.3891 15.12180272 17050
1 47514U 21006DE  21129.16817397  .00001673  00000-0  10067-3 0  9991
2 47514  97.4886 190.9127 0007284 239.4008 120.6504 15.12180291 17063
1 47514U 21006DE  21129.43286029  .00001654  00000-0  99521-4 0  9995
2 47514  97.4886 191.1723 0007301 238.3085 121.7434 15.12181155 17100
